[{"OBJECT_NAME":"STARLINK-1327","OBJECT_ID":"2020-025AA","EPOCH":"2025-12-17T23:55:31.175040","MEAN_MOTION":15.06406041,"ECCENTRICITY":0.00015047,"INCLINATION":53.0548,"RA_OF_ASC_NODE":93.3519,"ARG_OF_PERICENTER":92.9973,"MEAN_ANOMALY":267.1189,"EPHEMERIS_TYPE":0,"CLASSIFICATION_TYPE":"U","NORAD_CAT_ID":45555,"ELEMENT_SET_NO":999,"REV_AT_EPOCH":31305,"BSTAR":0.00011314048,"MEAN_MOTION_DOT":1.404e-5,"MEAN_MOTION_DDOT":0},{"OBJECT_NAME":"STARLINK-1356","OBJECT_ID":"2020-025AK","EPOCH":"2025-12-18T06:22:59.275776","MEAN_MOTION":15.06401241,"ECCENTRICITY":0.00016991,"INCLINATION":53.0569,"RA_OF_ASC_NODE":92.1425,"ARG_OF_PERICENTER":88.5794,"MEAN_ANOMALY":271.5389,"EPHEMERIS_TYPE":0,"CLASSIFICATION_TYPE":"U","NORAD_CAT_ID":45564,"ELEMENT_SET_NO":999,"REV_AT_EPOCH":31309,"BSTAR":1.026733e-6,"MEAN_MOTION_DOT":-2.66e-6,"MEAN_MOTION_DDOT":0},{"OBJECT_NAME":"STARLINK-1357","OBJECT_ID":"2020-025AL","EPOCH":"2025-12-17T22:48:46.714752","MEAN_MOTION":15.40064932,"ECCENTRICITY":0.0002657,"INCLINATION":53.0598,"RA_OF_ASC_NODE":68.6849,"ARG_OF_PERICENTER":172.3945,"MEAN_ANOMALY":187.71,"EPHEMERIS_TYPE":0,"CLASSIFICATION_TYPE":"U","NORAD_CAT_ID":45565,"ELEMENT_SET_NO":999,"REV_AT_EPOCH":31340,"BSTAR":0.0014324326,"MEAN_MOTION_DOT":0.00058193,"MEAN_MOTION_DDOT":0},{"OBJECT_NAME":"STARLINK-1361","OBJECT_ID":"2020-025AN","EPOCH":"2025-12-17T16:29:38.945184","MEAN_MOTION":15.06408324,"ECCENTRICITY":0.00012887,"INCLINATION":53.0563,"RA_OF_ASC_NODE":94.7397,"ARG_OF_PERICENTER":87.7136,"MEAN_ANOMALY":272.4,"EPHEMERIS_TYPE":0,"CLASSIFICATION_TYPE":"U","NORAD_CAT_ID":45567,"ELEMENT_SET_NO":999,"REV_AT_EPOCH":31301,"BSTAR":0.00013289596,"MEAN_MOTION_DOT":1.699e-5,"MEAN_MOTION_DDOT":0},{"OBJECT_NAME":"STARLINK-1363","OBJECT_ID":"2020-025AP","EPOCH":"2025-12-18T06:20:07.872000","MEAN_MOTION":15.50624141,"ECCENTRICITY":0.00059131,"INCLINATION":53.0511,"RA_OF_ASC_NODE":76.4987,"ARG_OF_PERICENTER":280.9255,"MEAN_ANOMALY":79.1088,"EPHEMERIS_TYPE":0,"CLASSIFICATION_TYPE":"U","NORAD_CAT_ID":45568,"ELEMENT_SET_NO":999,"REV_AT_EPOCH":31331,"BSTAR":0.0019688712,"MEAN_MOTION_DOT":0.00116042,"MEAN_MOTION_DDOT":0},{"OBJECT_NAME":"STARLINK-1366","OBJECT_ID":"2020-025AQ","EPOCH":"2025-12-18T05:30:36.808416","MEAN_MOTION":15.47595883,"ECCENTRICITY":0.00058234,"INCLINATION":53.0502,"RA_OF_ASC_NODE":76.8765,"ARG_OF_PERICENTER":296.54,"MEAN_ANOMALY":63.501,"EPHEMERIS_TYPE":0,"CLASSIFICATION_TYPE":"U","NORAD_CAT_ID":45569,"ELEMENT_SET_NO":999,"REV_AT_EPOCH":31330,"BSTAR":0.0018045442,"MEAN_MOTION_DOT":0.00095304,"MEAN_MOTION_DDOT":0},{"OBJECT_NAME":"STARLINK-1376","OBJECT_ID":"2020-025AR","EPOCH":"2025-12-18T00:22:03.692064","MEAN_MOTION":15.06396551,"ECCENTRICITY":0.0001149,"INCLINATION":53.0552,"RA_OF_ASC_NODE":93.2704,"ARG_OF_PERICENTER":88.0938,"MEAN_ANOMALY":272.0182,"EPHEMERIS_TYPE":0,"CLASSIFICATION_TYPE":"U","NORAD_CAT_ID":45570,"ELEMENT_SET_NO":999,"REV_AT_EPOCH":31305,"BSTAR":3.4766307e-5,"MEAN_MOTION_DOT":2.36e-6,"MEAN_MOTION_DDOT":0},{"OBJECT_NAME":"STARLINK-1320","OBJECT_ID":"2020-025AT","EPOCH":"2025-12-18T07:06:56.414592","MEAN_MOTION":15.50253298,"ECCENTRICITY":0.00037222,"INCLINATION":53.0558,"RA_OF_ASC_NODE":21.9594,"ARG_OF_PERICENTER":114.7392,"MEAN_ANOMALY":245.4003,"EPHEMERIS_TYPE":0,"CLASSIFICATION_TYPE":"U","NORAD_CAT_ID":45572,"ELEMENT_SET_NO":999,"REV_AT_EPOCH":31410,"BSTAR":0.0020252237,"MEAN_MOTION_DOT":0.00117797,"MEAN_MOTION_DDOT":0},{"OBJECT_NAME":"STARLINK-1321","OBJECT_ID":"2020-025AU","EPOCH":"2025-12-18T06:24:18.429408","MEAN_MOTION":15.06414155,"ECCENTRICITY":0.00028332,"INCLINATION":53.0546,"RA_OF_ASC_NODE":82.14,"ARG_OF_PERICENTER":84.2504,"MEAN_ANOMALY":275.8808,"EPHEMERIS_TYPE":0,"CLASSIFICATION_TYPE":"U","NORAD_CAT_ID":45573,"ELEMENT_SET_NO":999,"REV_AT_EPOCH":31293,"BSTAR":0.00027305576,"MEAN_MOTION_DOT":3.789e-5,"MEAN_MOTION_DDOT":0},{"OBJECT_NAME":"STARLINK-1328","OBJECT_ID":"2020-025AX","EPOCH":"2025-12-18T08:00:01.999872","MEAN_MOTION":15.90026316,"ECCENTRICITY":9.472e-5,"INCLINATION":53.0435,"RA_OF_ASC_NODE":33.4839,"ARG_OF_PERICENTER":242.2902,"MEAN_ANOMALY":129.7494,"EPHEMERIS_TYPE":0,"CLASSIFICATION_TYPE":"U","NORAD_CAT_ID":45576,"ELEMENT_SET_NO":999,"REV_AT_EPOCH":599,"BSTAR":0.00073693528,"MEAN_MOTION_DOT":0.00231673,"MEAN_MOTION_DDOT":0},{"OBJECT_NAME":"STARLINK-1331","OBJECT_ID":"2020-025AZ","EPOCH":"2025-12-18T05:52:28.129728","MEAN_MOTION":15.06392542,"ECCENTRICITY":0.00015442,"INCLINATION":53.0562,"RA_OF_ASC_NODE":82.2397,"ARG_OF_PERICENTER":86.7206,"MEAN_ANOMALY":273.396,"EPHEMERIS_TYPE":0,"CLASSIFICATION_TYPE":"U","NORAD_CAT_ID":45578,"ELEMENT_SET_NO":999,"REV_AT_EPOCH":31324,"BSTAR":2.7953204e-5,"MEAN_MOTION_DOT":1.35e-6,"MEAN_MOTION_DDOT":0},{"OBJECT_NAME":"STARLINK-1333","OBJECT_ID":"2020-025BB","EPOCH":"2025-12-18T06:01:45.126336","MEAN_MOTION":15.06393496,"ECCENTRICITY":0.0001288,"INCLINATION":53.0564,"RA_OF_ASC_NODE":92.2097,"ARG_OF_PERICENTER":93.5103,"MEAN_ANOMALY":266.6034,"EPHEMERIS_TYPE":0,"CLASSIFICATION_TYPE":"U","NORAD_CAT_ID":45580,"ELEMENT_SET_NO":999,"REV_AT_EPOCH":31309,"BSTAR":4.0958229e-5,"MEAN_MOTION_DOT":3.29e-6,"MEAN_MOTION_DDOT":0},{"OBJECT_NAME":"STARLINK-1335","OBJECT_ID":"2020-025BC","EPOCH":"2025-12-17T15:48:30.542976","MEAN_MOTION":15.06415923,"ECCENTRICITY":0.0001263,"INCLINATION":53.057,"RA_OF_ASC_NODE":84.872,"ARG_OF_PERICENTER":76.7128,"MEAN_ANOMALY":283.4001,"EPHEMERIS_TYPE":0,"CLASSIFICATION_TYPE":"U","NORAD_CAT_ID":45581,"ELEMENT_SET_NO":999,"REV_AT_EPOCH":31314,"BSTAR":0.00012058414,"MEAN_MOTION_DOT":1.516e-5,"MEAN_MOTION_DDOT":0},{"OBJECT_NAME":"STARLINK-1337","OBJECT_ID":"2020-025BD","EPOCH":"2025-12-18T06:40:14.048832","MEAN_MOTION":15.06394143,"ECCENTRICITY":0.00012414,"INCLINATION":53.0548,"RA_OF_ASC_NODE":82.0958,"ARG_OF_PERICENTER":75.2074,"MEAN_ANOMALY":284.9052,"EPHEMERIS_TYPE":0,"CLASSIFICATION_TYPE":"U","NORAD_CAT_ID":45582,"ELEMENT_SET_NO":999,"REV_AT_EPOCH":31323,"BSTAR":3.2360719e-5,"MEAN_MOTION_DOT":2.01e-6,"MEAN_MOTION_DDOT":0},{"OBJECT_NAME":"STARLINK-1347","OBJECT_ID":"2020-025BH","EPOCH":"2025-12-18T04:09:28.677312","MEAN_MOTION":15.38798609,"ECCENTRICITY":0.00022442,"INCLINATION":53.0529,"RA_OF_ASC_NODE":58.4098,"ARG_OF_PERICENTER":173.0034,"MEAN_ANOMALY":187.1001,"EPHEMERIS_TYPE":0,"CLASSIFICATION_TYPE":"U","NORAD_CAT_ID":45586,"ELEMENT_SET_NO":999,"REV_AT_EPOCH":31355,"BSTAR":0.001240576,"MEAN_MOTION_DOT":0.00048219,"MEAN_MOTION_DDOT":0},{"OBJECT_NAME":"STARLINK-1360","OBJECT_ID":"2020-025BK","EPOCH":"2025-12-18T08:00:01.999872","MEAN_MOTION":15.92278548,"ECCENTRICITY":0.00045022,"INCLINATION":53.0392,"RA_OF_ASC_NODE":319.6956,"ARG_OF_PERICENTER":74.2316,"MEAN_ANOMALY":5.8283,"EPHEMERIS_TYPE":0,"CLASSIFICATION_TYPE":"U","NORAD_CAT_ID":45588,"ELEMENT_SET_NO":999,"REV_AT_EPOCH":597,"BSTAR":0.00073889195,"MEAN_MOTION_DOT":0.00251697,"MEAN_MOTION_DDOT":3.4934394e-5}]
