STARLINK-1327           
1 45555U 20025AA  25351.99688860  .00001404  00000+0  11314-3 0  9994
2 45555  53.0548  93.3519 0001504  92.9973 267.1189 15.06406041313053
STARLINK-1356           
1 45564U 20025AK  25352.26596384 -.00000266  00000+0  10267-5 0  9998
2 45564  53.0569  92.1425 0001699  88.5794 271.5389 15.06401241313098
STARLINK-1357           
1 45565U 20025AL  25351.95054068  .00058193  00000+0  14324-2 0  9998
2 45565  53.0598  68.6849 0002657 172.3945 187.7100 15.40064932313408
STARLINK-1361           
1 45567U 20025AN  25351.68725631  .00001699  00000+0  13290-3 0  9992
2 45567  53.0563  94.7397 0001288  87.7136 272.4000 15.06408324313017
STARLINK-1363           
1 45568U 20025AP  25352.26398000  .00116042  00000+0  19689-2 0  9990
2 45568  53.0511  76.4987 0005913 280.9255  79.1088 15.50624141313318
STARLINK-1366           
1 45569U 20025AQ  25352.22959269  .00095304  00000+0  18045-2 0  9999
2 45569  53.0502  76.8765 0005823 296.5400  63.5010 15.47595883313309
STARLINK-1376           
1 45570U 20025AR  25352.01532051  .00000236  00000+0  34766-4 0  9994
2 45570  53.0552  93.2704 0001149  88.0938 272.0182 15.06396551313054
STARLINK-1320           
1 45572U 20025AT  25352.29648628  .00117797  00000+0  20252-2 0  9998
2 45572  53.0558  21.9594 0003722 114.7392 245.4003 15.50253298314109
STARLINK-1321           
1 45573U 20025AU  25352.26687997  .00003789  00000+0  27306-3 0  9991
2 45573  53.0546  82.1400 0002833  84.2504 275.8808 15.06414155312931
STARLINK-1328           
1 45576U 20025AX  25352.33335648  .00231673  00000+0  73694-3 0  9991
2 45576  53.0435  33.4839 0000947 242.2902 129.7494 15.90026316  5992
STARLINK-1331           
1 45578U 20025AZ  25352.24477002  .00000135  00000+0  27953-4 0  9999
2 45578  53.0562  82.2397 0001544  86.7206 273.3960 15.06392542313246
STARLINK-1333           
1 45580U 20025BB  25352.25121674  .00000329  00000+0  40958-4 0  9999
2 45580  53.0564  92.2097 0001288  93.5103 266.6034 15.06393496313095
STARLINK-1335           
1 45581U 20025BC  25351.65868684  .00001516  00000+0  12058-3 0  9990
2 45581  53.0570  84.8720 0001263  76.7128 283.4001 15.06415923313143
STARLINK-1337           
1 45582U 20025BD  25352.27794038  .00000201  00000+0  32361-4 0  9991
2 45582  53.0548  82.0958 0001241  75.2074 284.9052 15.06394143313234
STARLINK-1347           
1 45586U 20025BH  25352.17324858  .00048219  00000+0  12406-2 0  9990
2 45586  53.0529  58.4098 0002244 173.0034 187.1001 15.38798609313559
STARLINK-1360           
1 45588U 20025BK  25352.33335648  .00251697  34934-4  73889-3 0  9996
2 45588  53.0392 319.6956 0004502  74.2316   5.8283 15.92278548  5975
